

*******************************************************************************
Ephemeris / WWW_USER Thu May  4 19:53:16 2023 Pasadena, USA      / Horizons
*******************************************************************************
Target body name: Jupiter (599)                   {source: jup365_merged}
Center body name: Sun (10)                        {source: jup365_merged}
Center-site name: BODY CENTER
*******************************************************************************
Start time      : A.D. 1963-Jan-01 00:00:00.0000 TDB
Stop  time      : A.D. 2023-Jan-01 00:00:00.0000 TDB
Step-size       : 4320 minutes
*******************************************************************************
Center geodetic : 0.0, 0.0, 0.0                   {E-lon(deg),Lat(deg),Alt(km)}
Center cylindric: 0.0, 0.0, 0.0                   {E-lon(deg),Dxy(km),Dz(km)}
Center radii    : 696000.0, 696000.0, 696000.0 km {Equator_a, b, pole_c}
Output units    : KM-S
Calendar mode   : Mixed Julian/Gregorian
Output type     : GEOMETRIC cartesian states
Output format   : 1 (position only)
Reference frame : Ecliptic of J2000.0
*******************************************************************************
            JDTDB,            Calendar Date (TDB),                      X,                      Y,                      Z,
**************************************************************************************************************************
$$SOE
2453555.500000000, A.D. 2005-Jul-04 00:00:00.0000, -7.627105290386496E+08, -2.896152085599416E+08,  1.826962914238459E+07,
2453558.500000000, A.D. 2005-Jul-07 00:00:00.0000, -7.615434212184535E+08, -2.926222873608330E+08,  1.825598179772916E+07,
2453561.500000000, A.D. 2005-Jul-10 00:00:00.0000, -7.603634068729832E+08, -2.956245324004763E+08,  1.824204094201486E+07,
2453564.500000000, A.D. 2005-Jul-13 00:00:00.0000, -7.591710635664817E+08, -2.986218369609193E+08,  1.822780166054328E+07,
2453567.500000000, A.D. 2005-Jul-16 00:00:00.0000, -7.579660553371279E+08, -3.016143362277687E+08,  1.821326060900871E+07,
2453570.500000000, A.D. 2005-Jul-19 00:00:00.0000, -7.567487822678205E+08, -3.046014521338429E+08,  1.819843334742324E+07,
2453573.500000000, A.D. 2005-Jul-22 00:00:00.0000, -7.555191762446991E+08, -3.075839481109519E+08,  1.818329161161307E+07,
2453576.500000000, A.D. 2005-Jul-25 00:00:00.0000, -7.542769637378414E+08, -3.105613305886956E+08,  1.816785616711742E+07,
2453579.500000000, A.D. 2005-Jul-28 00:00:00.0000, -7.530225724872903E+08, -3.135337270515588E+08,  1.815211541179220E+07,
2453582.500000000, A.D. 2005-Jul-31 00:00:00.0000, -7.517553748263674E+08, -3.165009136653109E+08,  1.813608340790465E+07,
2453585.500000000, A.D. 2005-Aug-03 00:00:00.0000, -7.504761230560641E+08, -3.194626313746731E+08,  1.811975901045625E+07,
2453588.500000000, A.D. 2005-Aug-06 00:00:00.0000, -7.491845761699883E+08, -3.224193398269405E+08,  1.810312669830054E+07,
2453591.500000000, A.D. 2005-Aug-09 00:00:00.0000, -7.478806941185312E+08, -3.253704973820166E+08,  1.808620677008560E+07,
2453594.500000000, A.D. 2005-Aug-12 00:00:00.0000, -7.465645924223746E+08, -3.283167192490456E+08,  1.806897377359675E+07,
2453597.500000000, A.D. 2005-Aug-15 00:00:00.0000, -7.452358678345244E+08, -3.312574072136555E+08,  1.805145293967980E+07,
2453600.500000000, A.D. 2005-Aug-18 00:00:00.0000, -7.438951736818285E+08, -3.341924659597135E+08,  1.803363816787042E+07,
2453603.500000000, A.D. 2005-Aug-21 00:00:00.0000, -7.425420405064898E+08, -3.371221331332317E+08,  1.801552503176519E+07,
2453606.500000000, A.D. 2005-Aug-24 00:00:00.0000, -7.411769997277229E+08, -3.400460465027289E+08,  1.799711972857985E+07,
2453609.500000000, A.D. 2005-Aug-27 00:00:00.0000, -7.397997828798054E+08, -3.429647423584197E+08,  1.797840454431526E+07,
2453612.500000000, A.D. 2005-Aug-30 00:00:00.0000, -7.384100685004647E+08, -3.458775832789769E+08,  1.795940603738847E+07,
2453615.500000000, A.D. 2005-Sep-02 00:00:00.0000, -7.370083895079036E+08, -3.487848860428848E+08,  1.794010392421360E+07,
2453618.500000000, A.D. 2005-Sep-05 00:00:00.0000, -7.355943507277339E+08, -3.516862948892528E+08,  1.792051451900993E+07,
2453621.500000000, A.D. 2005-Sep-08 00:00:00.0000, -7.341685773188416E+08, -3.545817187205288E+08,  1.790063299322864E+07,
2453624.500000000, A.D. 2005-Sep-11 00:00:00.0000, -7.327306165747709E+08, -3.574716966542304E+08,  1.788044392670162E+07,
2453627.500000000, A.D. 2005-Sep-14 00:00:00.0000, -7.312806188822790E+08, -3.603555698208957E+08,  1.785996891196150E+07,
2453630.500000000, A.D. 2005-Sep-17 00:00:00.0000, -7.298185488614069E+08, -3.632337457945991E+08,  1.783919156519836E+07,
2453633.500000000, A.D. 2005-Sep-20 00:00:00.0000, -7.283441207398131E+08, -3.661056875709024E+08,  1.781813379798228E+07,
2453636.500000000, A.D. 2005-Sep-23 00:00:00.0000, -7.268581432319541E+08, -3.689715898794214E+08,  1.779677718015558E+07,
2453639.500000000, A.D. 2005-Sep-26 00:00:00.0000, -7.253600414085405E+08, -3.718315091360055E+08,  1.777512594554520E+07,
2453642.500000000, A.D. 2005-Sep-29 00:00:00.0000, -7.238501810409533E+08, -3.746851881485268E+08,  1.775318487085092E+07,
2453645.500000000, A.D. 2005-Oct-02 00:00:00.0000, -7.223282676120092E+08, -3.775331026117086E+08,  1.773093814941582E+07,
2453648.500000000, A.D. 2005-Oct-05 00:00:00.0000, -7.207942727101417E+08, -3.803743885549271E+08,  1.770841653149495E+07,
2453651.500000000, A.D. 2005-Oct-08 00:00:00.0000, -7.192485792011850E+08, -3.832094894546828E+08,  1.768559748714641E+07,
2453654.500000000, A.D. 2005-Oct-11 00:00:00.0000, -7.176908455313402E+08, -3.860382230018367E+08,  1.766249111956370E+07,
2453657.500000000, A.D. 2005-Oct-14 00:00:00.0000, -7.161217376299484E+08, -3.888605858781933E+08,  1.763908892836101E+07,
2453660.500000000, A.D. 2005-Oct-17 00:00:00.0000, -7.145405464678292E+08, -3.916768304943155E+08,  1.761538935188173E+07,
2453663.500000000, A.D. 2005-Oct-20 00:00:00.0000, -7.129475270496686E+08, -3.944863666067859E+08,  1.759140988021164E+07,
2453666.500000000, A.D. 2005-Oct-23 00:00:00.0000, -7.113428001457006E+08, -3.972895967462752E+08,  1.756713186558351E+07,
2453669.500000000, A.D. 2005-Oct-26 00:00:00.0000, -7.097261818665736E+08, -4.000858865514781E+08,  1.754258015149017E+07,
2453672.500000000, A.D. 2005-Oct-29 00:00:00.0000, -7.080982219186922E+08, -4.028757367456055E+08,  1.751772907374355E+07,
2453675.500000000, A.D. 2005-Nov-01 00:00:00.0000, -7.064583609576271E+08, -4.056591560038350E+08,  1.749258444286710E+07,
2453678.500000000, A.D. 2005-Nov-04 00:00:00.0000, -7.048070388892833E+08, -4.084357291415914E+08,  1.746715541164413E+07,
2453681.500000000, A.D. 2005-Nov-07 00:00:00.0000, -7.031438128785208E+08, -4.112057958326439E+08,  1.744143304027557E+07,
2453684.500000000, A.D. 2005-Nov-10 00:00:00.0000, -7.014689569444568E+08, -4.139686805895155E+08,  1.741543753302956E+07,
2453687.500000000, A.D. 2005-Nov-13 00:00:00.0000, -6.997828415567237E+08, -4.167248917902789E+08,  1.738914432614791E+07,
2453690.500000000, A.D. 2005-Nov-16 00:00:00.0000, -6.980849371834017E+08, -4.194741388742275E+08,  1.736257061128494E+07,
2453693.500000000, A.D. 2005-Nov-19 00:00:00.0000, -6.963757888811221E+08, -4.222166295320499E+08,  1.733570151897821E+07,
2453696.500000000, A.D. 2005-Nov-22 00:00:00.0000, -6.946548250676008E+08, -4.249523551855592E+08,  1.730854269255051E+07,
2453699.500000000, A.D. 2005-Nov-25 00:00:00.0000, -6.929224512723387E+08, -4.276806430030088E+08,  1.728111281288832E+07,
2453702.500000000, A.D. 2005-Nov-28 00:00:00.0000, -6.911786536194828E+08, -4.304020939924430E+08,  1.725338827753222E+07,
2453705.500000000, A.D. 2005-Dec-01 00:00:00.0000, -6.894234412990315E+08, -4.331161742698730E+08,  1.722538811667100E+07,
2453708.500000000, A.D. 2005-Dec-04 00:00:00.0000, -6.876571511488690E+08, -4.358233203499034E+08,  1.719709160902160E+07,
2453711.500000000, A.D. 2005-Dec-07 00:00:00.0000, -6.858790497247500E+08, -4.385233772237557E+08,  1.716851283180708E+07,
2453714.500000000, A.D. 2005-Dec-10 00:00:00.0000, -6.840898053376013E+08, -4.412160757578222E+08,  1.713965213317811E+07,
2453717.500000000, A.D. 2005-Dec-13 00:00:00.0000, -6.822890966069227E+08, -4.439015812837616E+08,  1.711050551055795E+07,
2453720.500000000, A.D. 2005-Dec-16 00:00:00.0000, -6.804771878083844E+08, -4.465793361504220E+08,  1.708108996576509E+07,
2453723.500000000, A.D. 2005-Dec-19 00:00:00.0000, -6.786542560957069E+08, -4.492500862635291E+08,  1.705137496457660E+07,
2453726.500000000, A.D. 2005-Dec-22 00:00:00.0000, -6.768198786439255E+08, -4.519133177481490E+08,  1.702138419265646E+07,
2453729.500000000, A.D. 2005-Dec-25 00:00:00.0000, -6.749744524152950E+08, -4.545691361227638E+08,  1.699110801625466E+07,
2453732.500000000, A.D. 2005-Dec-28 00:00:00.0000, -6.731174449997758E+08, -4.572175260986652E+08,  1.696055197790286E+07,
2453735.500000000, A.D. 2005-Dec-31 00:00:00.0000, -6.712495938926623E+08, -4.598580099400195E+08,  1.692972360659626E+07,
2453738.500000000, A.D. 2006-Jan-03 00:00:00.0000, -6.693706935635804E+08, -4.624911124516793E+08,  1.689860524339744E+07,
2453741.500000000, A.D. 2006-Jan-06 00:00:00.0000, -6.674806343392845E+08, -4.651163716557629E+08,  1.686721539891878E+07,
2453744.500000000, A.D. 2006-Jan-09 00:00:00.0000, -6.655797156643012E+08, -4.677342733572329E+08,  1.683553129731181E+07,
2453747.500000000, A.D. 2006-Jan-12 00:00:00.0000, -6.636673462372888E+08, -4.703442993434429E+08,  1.680357808507338E+07,
2453750.500000000, A.D. 2006-Jan-15 00:00:00.0000, -6.617441794776173E+08, -4.729463466969578E+08,  1.677135056563127E+07,
2453753.500000000, A.D. 2006-Jan-18 00:00:00.0000, -6.598099282225773E+08, -4.755407535936935E+08,  1.673883861390364E+07,
2453756.500000000, A.D. 2006-Jan-21 00:00:00.0000, -6.578649968675628E+08, -4.781269863098592E+08,  1.670605692008361E+07,
2453759.500000000, A.D. 2006-Jan-24 00:00:00.0000, -6.559092020820662E+08, -4.807056778805163E+08,  1.667298383580258E+07,
